{
  "type": "FeatureCollection",
  "features": [
    {
      "type": "Feature",
      "properties": {
        "norad_id": 66310,
        "name": "LVM3 R/B",
        "group": "last-30-days",
        "lat": NaN,
        "lon": NaN,
        "alt_km": NaN,
        "timestamp": "2025-12-01T03:12:43.524635+00:00",
        "meta": {
          "OBJECT_NAME": "LVM3 R/B",
          "OBJECT_ID": "2025-249A",
          "EPOCH": "2025-11-30T01:39:41.511744",
          "MEAN_MOTION": 3.14154353,
          "ECCENTRICITY": 0.66694835,
          "INCLINATION": 21.3469,
          "RA_OF_ASC_NODE": 144.7332,
          "ARG_OF_PERICENTER": 206.7231,
          "MEAN_ANOMALY": 92.3964,
          "EPHEMERIS_TYPE": 0,
          "CLASSIFICATION_TYPE": "U",
          "NORAD_CAT_ID": 66310,
          "ELEMENT_SET_NO": 999,
          "REV_AT_EPOCH": 88,
          "BSTAR": 0.0013035202,
          "MEAN_MOTION_DOT": 0.00047337,
          "MEAN_MOTION_DDOT": 2.76296e-07
        }
      },
      "geometry": {
        "type": "Point",
        "coordinates": [
          NaN,
          NaN
        ]
      }
    },
    {
      "type": "Feature",
      "properties": {
        "norad_id": 66317,
        "name": "ELECTRON R/B",
        "group": "last-30-days",
        "lat": NaN,
        "lon": NaN,
        "alt_km": NaN,
        "timestamp": "2025-12-01T03:12:43.524671+00:00",
        "meta": {
          "OBJECT_NAME": "ELECTRON R/B",
          "OBJECT_ID": "2025-252B",
          "EPOCH": "2025-11-29T21:07:58.211904",
          "MEAN_MOTION": 15.94243293,
          "ECCENTRICITY": 0.01246685,
          "INCLINATION": 41.9889,
          "RA_OF_ASC_NODE": 130.1303,
          "ARG_OF_PERICENTER": 46.1701,
          "MEAN_ANOMALY": 314.9386,
          "EPHEMERIS_TYPE": 0,
          "CLASSIFICATION_TYPE": "U",
          "NORAD_CAT_ID": 66317,
          "ELEMENT_SET_NO": 999,
          "REV_AT_EPOCH": 378,
          "BSTAR": 0.0019142518,
          "MEAN_MOTION_DOT": 0.01669799,
          "MEAN_MOTION_DDOT": 7.910989e-06
        }
      },
      "geometry": {
        "type": "Point",
        "coordinates": [
          NaN,
          NaN
        ]
      }
    },
    {
      "type": "Feature",
      "properties": {
        "norad_id": 66377,
        "name": "CZ-11 DEB",
        "group": "last-30-days",
        "lat": NaN,
        "lon": NaN,
        "alt_km": NaN,
        "timestamp": "2025-12-01T03:12:43.524687+00:00",
        "meta": {
          "OBJECT_NAME": "CZ-11 DEB",
          "OBJECT_ID": "2025-255B",
          "EPOCH": "2025-11-30T19:42:51.512256",
          "MEAN_MOTION": 15.43300806,
          "ECCENTRICITY": 0.0013932,
          "INCLINATION": 52.9961,
          "RA_OF_ASC_NODE": 234.6028,
          "ARG_OF_PERICENTER": 3.0137,
          "MEAN_ANOMALY": 357.0949,
          "EPHEMERIS_TYPE": 0,
          "CLASSIFICATION_TYPE": "U",
          "NORAD_CAT_ID": 66377,
          "ELEMENT_SET_NO": 999,
          "REV_AT_EPOCH": 337,
          "BSTAR": 0.00094669,
          "MEAN_MOTION_DOT": 0.00042771,
          "MEAN_MOTION_DDOT": 0
        }
      },
      "geometry": {
        "type": "Point",
        "coordinates": [
          NaN,
          NaN
        ]
      }
    },
    {
      "type": "Feature",
      "properties": {
        "norad_id": 66379,
        "name": "SHIYAN-32 03",
        "group": "last-30-days",
        "lat": NaN,
        "lon": NaN,
        "alt_km": NaN,
        "timestamp": "2025-12-01T03:12:43.524697+00:00",
        "meta": {
          "OBJECT_NAME": "SHIYAN-32 03",
          "OBJECT_ID": "2025-255D",
          "EPOCH": "2025-11-30T19:49:44.924160",
          "MEAN_MOTION": 15.42511298,
          "ECCENTRICITY": 0.0015334,
          "INCLINATION": 52.9969,
          "RA_OF_ASC_NODE": 234.634,
          "ARG_OF_PERICENTER": 6.3202,
          "MEAN_ANOMALY": 353.7992,
          "EPHEMERIS_TYPE": 0,
          "CLASSIFICATION_TYPE": "U",
          "NORAD_CAT_ID": 66379,
          "ELEMENT_SET_NO": 999,
          "REV_AT_EPOCH": 339,
          "BSTAR": 0.00046626,
          "MEAN_MOTION_DOT": 0.00020248,
          "MEAN_MOTION_DDOT": 0
        }
      },
      "geometry": {
        "type": "Point",
        "coordinates": [
          NaN,
          NaN
        ]
      }
    },
    {
      "type": "Feature",
      "properties": {
        "norad_id": 66411,
        "name": "ZK-1A R/B",
        "group": "last-30-days",
        "lat": NaN,
        "lon": NaN,
        "alt_km": NaN,
        "timestamp": "2025-12-01T03:12:43.524706+00:00",
        "meta": {
          "OBJECT_NAME": "ZK-1A R/B",
          "OBJECT_ID": "2025-256C",
          "EPOCH": "2025-11-20T17:22:35.449824",
          "MEAN_MOTION": 15.012361,
          "ECCENTRICITY": 0.02323532,
          "INCLINATION": 98.3243,
          "RA_OF_ASC_NODE": 30.9055,
          "ARG_OF_PERICENTER": 318.4537,
          "MEAN_ANOMALY": 39.9225,
          "EPHEMERIS_TYPE": 0,
          "CLASSIFICATION_TYPE": "U",
          "NORAD_CAT_ID": 66411,
          "ELEMENT_SET_NO": 999,
          "REV_AT_EPOCH": 174,
          "BSTAR": 0.00048987823,
          "MEAN_MOTION_DOT": 0.00011214,
          "MEAN_MOTION_DDOT": 0
        }
      },
      "geometry": {
        "type": "Point",
        "coordinates": [
          NaN,
          NaN
        ]
      }
    },
    {
      "type": "Feature",
      "properties": {
        "norad_id": 66421,
        "name": "CZ-12 R/B",
        "group": "last-30-days",
        "lat": NaN,
        "lon": NaN,
        "alt_km": NaN,
        "timestamp": "2025-12-01T03:12:43.524713+00:00",
        "meta": {
          "OBJECT_NAME": "CZ-12 R/B",
          "OBJECT_ID": "2025-258K",
          "EPOCH": "2025-11-30T10:57:33.018624",
          "MEAN_MOTION": 14.42314877,
          "ECCENTRICITY": 0.00645425,
          "INCLINATION": 49.9953,
          "RA_OF_ASC_NODE": 311.2478,
          "ARG_OF_PERICENTER": 205.2563,
          "MEAN_ANOMALY": 154.5197,
          "EPHEMERIS_TYPE": 0,
          "CLASSIFICATION_TYPE": "U",
          "NORAD_CAT_ID": 66421,
          "ELEMENT_SET_NO": 999,
          "REV_AT_EPOCH": 294,
          "BSTAR": 2.3738732e-05,
          "MEAN_MOTION_DOT": -9e-07,
          "MEAN_MOTION_DDOT": 0
        }
      },
      "geometry": {
        "type": "Point",
        "coordinates": [
          NaN,
          NaN
        ]
      }
    },
    {
      "type": "Feature",
      "properties": {
        "norad_id": 66455,
        "name": "ATLAS 5 CENTAUR R/B",
        "group": "last-30-days",
        "lat": NaN,
        "lon": NaN,
        "alt_km": NaN,
        "timestamp": "2025-12-01T03:12:43.524721+00:00",
        "meta": {
          "OBJECT_NAME": "ATLAS 5 CENTAUR R/B",
          "OBJECT_ID": "2025-261B",
          "EPOCH": "2025-11-26T18:27:12.771648",
          "MEAN_MOTION": 2.28258333,
          "ECCENTRICITY": 0.23299319,
          "INCLINATION": 6.1673,
          "RA_OF_ASC_NODE": 293.2138,
          "ARG_OF_PERICENTER": 183.2713,
          "MEAN_ANOMALY": 340.9993,
          "EPHEMERIS_TYPE": 0,
          "CLASSIFICATION_TYPE": "U",
          "NORAD_CAT_ID": 66455,
          "ELEMENT_SET_NO": 999,
          "REV_AT_EPOCH": 28,
          "BSTAR": 0,
          "MEAN_MOTION_DOT": -5.2e-07,
          "MEAN_MOTION_DDOT": 0
        }
      },
      "geometry": {
        "type": "Point",
        "coordinates": [
          NaN,
          NaN
        ]
      }
    },
    {
      "type": "Feature",
      "properties": {
        "norad_id": 66548,
        "name": "CZ-2C R/B",
        "group": "last-30-days",
        "lat": NaN,
        "lon": NaN,
        "alt_km": NaN,
        "timestamp": "2025-12-01T03:12:43.524736+00:00",
        "meta": {
          "OBJECT_NAME": "CZ-2C R/B",
          "OBJECT_ID": "2025-266D",
          "EPOCH": "2025-11-30T04:35:02.311872",
          "MEAN_MOTION": 15.29753405,
          "ECCENTRICITY": 0.0085083,
          "INCLINATION": 52.055,
          "RA_OF_ASC_NODE": 31.0469,
          "ARG_OF_PERICENTER": 130.2875,
          "MEAN_ANOMALY": 230.5588,
          "EPHEMERIS_TYPE": 0,
          "CLASSIFICATION_TYPE": "U",
          "NORAD_CAT_ID": 66548,
          "ELEMENT_SET_NO": 999,
          "REV_AT_EPOCH": 169,
          "BSTAR": 0.00040032,
          "MEAN_MOTION_DOT": 0.00012686,
          "MEAN_MOTION_DDOT": 0
        }
      },
      "geometry": {
        "type": "Point",
        "coordinates": [
          NaN,
          NaN
        ]
      }
    }
  ]
}