LVM3 R/B                
1 66310U 25249A   25334.06923046  .00047337  27630-6  13035-2 0  9997
2 66310  21.3469 144.7332 6669483 206.7231  92.3964  3.14154353   888
ELECTRON R/B            
1 66317U 25252B   25333.88053486  .01669799  79110-5  19143-2 0  9997
2 66317  41.9889 130.1303 0124668  46.1701 314.9386 15.94243293  3785
CZ-11 DEB               
1 66377U 25255B   25334.82142954  .00042771  00000+0  94669-3 0  9997
2 66377  52.9961 234.6028 0013932   3.0137 357.0949 15.43300806  3370
SHIYAN-32 03            
1 66379U 25255D   25334.82621440  .00020248  00000+0  46626-3 0  9996
2 66379  52.9969 234.6340 0015334   6.3202 353.7992 15.42511298  3395
ZK-1A R/B               
1 66411U 25256C   25324.72402141  .00011214  00000+0  48988-3 0  9993
2 66411  98.3243  30.9055 0232353 318.4537  39.9225 15.01236100  1741
CZ-12 R/B               
1 66421U 25258K   25334.45663216 -.00000090  00000+0  23739-4 0  9998
2 66421  49.9953 311.2478 0064542 205.2563 154.5197 14.42314877  2948
ATLAS 5 CENTAUR R/B     
1 66455U 25261B   25330.76889782 -.00000052  00000+0  00000+0 0  9996
2 66455   6.1673 293.2138 2329931 183.2713 340.9993  2.28258333   286
CZ-2C R/B               
1 66548U 25266D   25334.19099898  .00012686  00000+0  40032-3 0  9994
2 66548  52.0550  31.0469 0085083 130.2875 230.5588 15.29753405  1699
